[{"OBJECT_NAME":"STARLINK-32490","OBJECT_ID":"2024-222N","EPOCH":"2026-03-09T05:41:54.322656","MEAN_MOTION":15.2758704,"ECCENTRICITY":0.00042875,"INCLINATION":43.0007,"RA_OF_ASC_NODE":138.4134,"ARG_OF_PERICENTER":293.8133,"MEAN_ANOMALY":66.2269,"EPHEMERIS_TYPE":0,"CLASSIFICATION_TYPE":"U","NORAD_CAT_ID":62126,"ELEMENT_SET_NO":999,"REV_AT_EPOCH":7268,"BSTAR":0.0010398952,"MEAN_MOTION_DOT":0.00028475,"MEAN_MOTION_DDOT":0},{"OBJECT_NAME":"OBJECT N","OBJECT_ID":"2019-093N","EPOCH":"2026-03-09T21:41:56.087232","MEAN_MOTION":15.29897693,"ECCENTRICITY":0.0006278,"INCLINATION":98.0505,"RA_OF_ASC_NODE":226.9456,"ARG_OF_PERICENTER":33.3806,"MEAN_ANOMALY":326.7828,"EPHEMERIS_TYPE":0,"CLASSIFICATION_TYPE":"U","NORAD_CAT_ID":44891,"ELEMENT_SET_NO":999,"REV_AT_EPOCH":33957,"BSTAR":0.0010567776,"MEAN_MOTION_DOT":0.00030617,"MEAN_MOTION_DDOT":0}]
